[{"OBJECT_NAME":"STARLINK-31949","OBJECT_ID":"2024-100G","EPOCH":"2026-03-09T04:57:48.273408","MEAN_MOTION":15.27593382,"ECCENTRICITY":0.00014789,"INCLINATION":42.9998,"RA_OF_ASC_NODE":128.0653,"ARG_OF_PERICENTER":116.9776,"MEAN_ANOMALY":243.1227,"EPHEMERIS_TYPE":0,"CLASSIFICATION_TYPE":"U","NORAD_CAT_ID":59891,"ELEMENT_SET_NO":999,"REV_AT_EPOCH":10098,"BSTAR":-0.00019194479,"MEAN_MOTION_DOT":-5.542e-5,"MEAN_MOTION_DDOT":0},{"OBJECT_NAME":"PEGASUS R\/B","OBJECT_ID":"2007-015B","EPOCH":"2026-03-09T10:58:33.801024","MEAN_MOTION":15.26741121,"ECCENTRICITY":0.00105976,"INCLINATION":97.9168,"RA_OF_ASC_NODE":31.3919,"ARG_OF_PERICENTER":317.6341,"MEAN_ANOMALY":42.4077,"EPHEMERIS_TYPE":0,"CLASSIFICATION_TYPE":"U","NORAD_CAT_ID":31305,"ELEMENT_SET_NO":999,"REV_AT_EPOCH":3383,"BSTAR":0.00044093522,"MEAN_MOTION_DOT":0.00011537,"MEAN_MOTION_DDOT":0}]
